COSMOS 2433 (720)       
1 32275U 07052A   22353.55188104 -.00000024  00000+0  00000+0 0  9995
2 32275  66.0677 358.5282 0005312 255.3032 166.9311  2.13104403117911
COSMOS 2432 (719)       
1 32276U 07052B   22353.53730035 -.00000024  00000+0  00000+0 0  9990
2 32276  66.0827 358.6336 0011011 314.0397  44.7812  2.13103391117903
COSMOS 2434 (721)       
1 32393U 07065A   22353.36475622  .00000066  00000+0  00000+0 0  9998
2 32393  64.3580 235.1199 0003505  68.9835  99.8887  2.13103168116619
COSMOS 2436 (723)       
1 32395U 07065C   22353.67896595  .00000069  00000+0  00000+0 0  9993
2 32395  64.3670 235.1685 0016609   3.0062 182.6285  2.13102814116555
COSMOS 2456 (730)       
1 36111U 09070A   22353.43595406  .00000029  00000+0  00000+0 0  9998
2 36111  64.4052 114.7012 0001826 312.0397  74.4380  2.13099241101282
COSMOS 2457 (733)       
1 36112U 09070B   22353.70135788  .00000027  00000+0  00000+0 0  9990
2 36112  64.3888 114.5634 0006544 155.2591 203.5826  2.13101330101285
COSMOS 2460 (732)       
1 36402U 10007C   22353.51416470 -.00000024  00000+0  00000+0 0  9991
2 36402  65.9365 357.2886 0002398 263.3924 297.2807  2.13106350 99634
COSMOS 2464 (736)       
1 37139U 10041C   22353.57132509  .00000070  00000+0  00000+0 0  9991
2 37139  63.9567 234.0967 0030611  11.4221 172.8291  2.13101106 95698
COSMOS 2476 (744)       
1 37867U 11064A   22352.94511315  .00000037  00000+0  00000+0 0  9994
2 37867  64.6904 116.1455 0021377 230.9198  46.0773  2.13101756 86611
COSMOS 2477 (745)       
1 37868U 11064B   22353.76229565  .00000030  00000+0  00000+0 0  9992
2 37868  64.6987 116.1844 0018515 230.9507 130.9816  2.13101560 86590
COSMOS 2475 (743)       
1 37869U 11064C   22353.83356873  .00000030  00000+0  00000+0 0  9994
2 37869  64.7060 116.1915 0022091 249.9681 124.8551  2.13101765 86607
COSMOS 2485 (747)       
1 39155U 13019A   22352.61659052  .00000040  00000+0  00000+0 0  9997
2 39155  64.8524 116.6242 0021819 226.6665 202.6981  2.13101779 75089
COSMOS 2492 (754)       
1 39620U 14012A   22353.41403279 -.00000025  00000+0  00000+0 0  9999
2 39620  65.8228 356.9476 0014196 313.2506  42.2019  2.13103185 68044
COSMOS 2500 (755)       
1 40001U 14032A   22353.66363941 -.00000025  00000+0  00000+0 0  9994
2 40001  65.7623 356.7873 0008092 218.5941 186.4782  2.13102385 66276
COSMOS 2501 (702K)      
1 40315U 14075A   22353.59062781  .00000069  00000+0  00000+0 0  9996
2 40315  63.6631 234.6940 0017537 207.8894 310.0676  2.13101316 62671
COSMOS 2514 (751)       
1 41330U 16008A   22353.36475815 -.00000025  00000+0  00000+0 0  9996
2 41330  65.5605 356.4407 0011644 224.0137 135.9344  2.13102582 53432
COSMOS 2516 (753)       
1 41554U 16032A   22353.01740087  .00000062  00000+0  00000+0 0  9999
2 41554  63.8890 235.0426 0014063 213.6190 146.3732  2.13106303 51037
COSMOS 2522 (752)       
1 42939U 17055A   22353.43799435  .00000065  00000+0  00000+0 0  9993
2 42939  64.1228 235.4765 0006691 245.1701 291.2552  2.13102061 40798
COSMOS 2527 (756)       
1 43508U 18053A   22353.16654635  .00000036  00000+0  00000+0 0  9995
2 43508  65.0159 116.6453 0007889 215.6768 144.5103  2.13102503 35082
COSMOS 2529 (757)       
1 43687U 18086A   22353.89729222  .00000070  00000+0  00000+0 0  9992
2 43687  64.3378 235.8265 0008686 270.6300 213.6426  2.13102113 32113
COSMOS 2534 (758)       
1 44299U 19030A   22353.37439162  .00000064  00000+0  00000+0 0  9999
2 44299  64.4107 235.7464 0011561 292.0257 285.4875  2.13101879 27745
COSMOS 2544 (759)       
1 44850U 19088A   22353.57688226  .00000033  00000+0  16595+1 0  9997
2 44850  65.0009 116.4789 0011354 249.9332 108.3580  2.13102250 23517
COSMOS 2545 (760)       
1 45358U 20018A   22353.40233836 -.00000027  00000+0  00000+0 0  9998
2 45358  64.8988 356.8974 0011600 250.1072 183.5326  2.13102687 21479
COSMOS 2547 (705K)      
1 46805U 20075A   22353.68873851  .00000069  00000+0  00000+0 0  9991
2 46805  64.6362 235.2149 0006225 245.9591 261.0306  2.13102980 16728
COSMOS 2557 (706K)      
1 52984U 22075A   22353.89632646 -.00000028  00000+0  10000-3 0  9997
2 52984  64.8071 359.0687 0013742 279.2847 264.1560  2.13101774  3520
COSMOS 2559 (707K)      
1 54031U 22130A   22353.66335762 -.00000028  00000+0  00000+0 0  9993
2 54031  64.7769 359.2132 0007653 231.5535 178.4796  2.13101340  1507
COSMOS 2564 (761)       
1 54377U 22161A   22353.55648269  .00000068  00000+0  00000+0 0  9990
2 54377  64.7499 235.1839 0043129 141.1296  36.6185  2.13104957   440
